<kml xmlns="http://www.opengis.net/kml/2.2"><Document><Placemark><Polygon><outerBoundaryIs><LinearRing><coordinates>74.2479896,31.4719518 74.2481621,31.471636 74.2498891,31.4687254 74.2508148,31.4676232 74.2516326,31.4668695 74.251804,31.4667367 74.2537108,31.465218 74.2543204,31.4649058 74.2567473,31.464004 74.2574383,31.4636973 74.2581104,31.4634193 74.2592451,31.4626898 74.2610208,31.4608084 74.2614755,31.460526 74.2645446,31.4589941 74.2729044,31.4586336 74.2729803,31.4537446 74.2683413,31.4529882 74.269956,31.4480304 74.2710754,31.4467756 74.2758924,31.4474279 74.2780491,31.4555851 74.2768576,31.4599043 74.2806566,31.4546225 74.2851928,31.4524864 74.2908642,31.4505874 74.294809,31.4509243 74.2981918,31.4502158 74.3007752,31.4550898 74.3008745,31.4552804 74.3069495,31.4674822 74.3041976,31.4687619 74.3001457,31.4792989 74.2996512,31.4796603 74.2992146,31.4796497 74.2991081,31.4772872 74.2990346,31.4756551 74.3002447,31.4757897 74.3016425,31.4719599 74.2990906,31.471789 74.2960166,31.4729408 74.29581,31.4730367 74.2825554,31.4780169 74.284299,31.4816115 74.2792825,31.4797171 74.2746162,31.4783919 74.2680794,31.4767913 74.2638247,31.4758641 74.2594004,31.4749618 74.2491286,31.4723979 74.2479896,31.4719518</coordinates></LinearRing></outerBoundaryIs></Polygon></Placemark></Document></kml>